[{"OBJECT_NAME":"STARLINK-1270","OBJECT_ID":"2020-012BM","EPOCH":"2026-03-09T23:16:53.813856","MEAN_MOTION":15.47116373,"ECCENTRICITY":0.00038015,"INCLINATION":53.0511,"RA_OF_ASC_NODE":346.2195,"ARG_OF_PERICENTER":102.222,"MEAN_ANOMALY":257.9213,"EPHEMERIS_TYPE":0,"CLASSIFICATION_TYPE":"U","NORAD_CAT_ID":45237,"ELEMENT_SET_NO":999,"REV_AT_EPOCH":33571,"BSTAR":0.0019102409,"MEAN_MOTION_DOT":0.00099262,"MEAN_MOTION_DDOT":0},{"OBJECT_NAME":"STARLINK-36329","OBJECT_ID":"2026-026U","EPOCH":"2026-03-09T22:00:01.999584","MEAN_MOTION":15.50051843,"ECCENTRICITY":0.00015691,"INCLINATION":97.2841,"RA_OF_ASC_NODE":123.562,"ARG_OF_PERICENTER":77.7397,"MEAN_ANOMALY":270.0665,"EPHEMERIS_TYPE":0,"CLASSIFICATION_TYPE":"U","NORAD_CAT_ID":67739,"ELEMENT_SET_NO":999,"REV_AT_EPOCH":535,"BSTAR":-0.037726125,"MEAN_MOTION_DOT":-0.0186882,"MEAN_MOTION_DDOT":0}]
